HORYU-4                 
1 41340U 16012D   20096.30585059  .00000467  00000-0  28629-4 0  9992
2 41340  31.0051  77.5993 0013972 143.0408 217.1192 15.01455294226870
E-ST@R-II               
1 41459U 16025D   20096.52537469  .00001806  00000-0  93870-4 0  9991
2 41459  98.0948 202.7582 0166991  97.1302 264.8931 15.06243905216460
AAUSAT 4                
1 41460U 16025E   20096.30770096  .00003634  00000-0  17979-3 0  9990
2 41460  98.0944 204.6069 0155573  87.7549 274.1481 15.08478490216613
DIWATA-1                
1 41463U 98067HT  20096.13259618  .03782266  12372-4  31946-3 0  9999
2 41463  51.6144 148.7966 0001320 291.3384 159.7330 16.38769049226212
BEESAT-4                
1 41619U 16040W   20096.40912120  .00001376  00000-0  59911-4 0  9994
2 41619  97.3275 157.6486 0012840  79.6195 280.6489 15.23821142198278
CANX-7                  
1 41788U 16059F   20096.58784808  .00007155  00000-0  10043-2 0  9992
2 41788  98.2495 182.6470 0033413 165.5659 194.6515 14.77365219189055
RAVAN                   
1 41849U 16067B   20096.29226735  .00000291  00000-0  29470-4 0  9997
2 41849  97.9246 204.9377 0009208 127.5131 232.6929 14.98488884185667
CELTEE 1                
1 41850U 16067C   20096.28771450  .00000091  00000-0  13147-4 0  9999
2 41850  97.9195 202.8731 0009799 128.7084 231.5015 14.97143227185558
OPTICUBE 04             
1 41851U 16067D   20096.53991189 -.00000396  00000-0 -29187-4 0  9992
2 41851  97.9192 202.7867 0009795 128.1635 232.0470 14.96900508185572
AEROCUBE 8D             
1 41852U 16067E   20096.28758060  .00000170  00000-0  20090-4 0  9996
2 41852  97.9193 202.3626 0010676 130.8941 229.3206 14.96866343185511
AEROCUBE 8C             
1 41853U 16067F   20096.18374426  .00000650  00000-0  61965-4 0  9995
2 41853  97.9201 202.1688 0011329 130.2304 229.9910 14.96838067185498
PROMETHEUS 2-1          
1 41854U 16067G   20096.36900579  .00000843  00000-0  78191-4 0  9993
2 41854  97.9204 202.6397 0011698 130.6535 229.5705 14.97130173185530
PROMETHEUS 2-3          
1 41855U 16067H   20096.57043924  .00000929  00000-0  85614-4 0  9992
2 41855  97.9207 202.8727 0011912 130.2883 229.9382 14.97141004185567
INS-1B                  
1 41954U 17008G   20096.43291357  .00001363  00000-0  58112-4 0  9994
2 41954  97.3613 162.1218 0008808 187.8596 172.2505 15.24599892174247
BGUSAT                  
1 41999U 17008BD  20096.09648860  .00002015  00000-0  78316-4 0  9993
2 41999  97.3718 165.5359 0007534 197.0493 163.0494 15.27197732173759
DIDO-2                  
1 42000U 17008BE  20096.44819156  .00000897  00000-0  39527-4 0  9991
2 42000  97.3621 162.6657 0007621 206.9794 153.1048 15.24358898173648
PEASSS                  
1 42015U 17008BV  20096.41347591  .00001140  00000-0  47898-4 0  9995
2 42015  97.3641 164.0878 0005426 207.3156 152.7798 15.25453267174213
AL-FARABI 1             
1 42016U 17008BW  20096.27717251  .00001450  00000-0  58741-4 0  9997
2 42016  97.3667 164.8813 0005336 206.2709 153.8260 15.26246624174361
NAYIF-1 (EO-88)         
1 42017U 17008BX  20096.25781745  .00001491  00000-0  60274-4 0  9994
2 42017  97.3661 164.8734 0005386 206.2462 153.8505 15.26285737174381
NSIGHT                  
1 42726U 98067MF  20096.49952311  .00287418  47363-4  46043-3 0  9999
2 42726  51.6245 235.4342 0007800 302.5775  57.4483 16.03033492163971
UCLSAT                  
1 42765U 17036A   20096.11797260  .00001169  00000-0  52050-4 0  9994
2 42765  97.3095 152.3010 0009607 286.8312  73.1871 15.23359717155419
LITUANICASAT-2          
1 42768U 17036D   20096.44703728  .00002091  00000-0  89632-4 0  9990
2 42768  97.3150 152.4881 0012924 272.9534  87.0224 15.23791867154724
AALTO-1                 
1 42775U 17036L   20096.20239512  .00000688  00000-0  33346-4 0  9998
2 42775  97.3076 150.4037 0012139 277.8267  82.1591 15.21732735154534
URSA MAIOR              
1 42776U 17036M   20096.13449588  .00000781  00000-0  37261-4 0  9991
2 42776  97.3087 150.5914 0011945 277.8047  82.1833 15.21903657154534
COMPASS 2               
1 42777U 17036N   20096.33218342  .00001521  00000-0  66218-4 0  9993
2 42777  97.3139 152.8183 0010541 275.1089  84.8945 15.23697078154660
DIAMOND RED             
1 42783U 17036U   20096.34276959  .00000902  00000-0  41608-4 0  9997
2 42783  97.3097 151.8616 0010309 287.8140  72.1972 15.22697478154629
PEGASUS                 
1 42784U 17036V   20096.19418069  .00001043  00000-0  47192-4 0  9992
2 42784  97.3101 152.0936 0010198 287.4247  72.5875 15.23058077154627
DIAMOND GREEN           
1 42785U 17036W   20096.40726951  .00000917  00000-0  42261-4 0  9990
2 42785  97.3100 151.9575 0010208 288.3752  71.6374 15.22696353154704
DIAMOND BLUE            
1 42786U 17036X   20096.40649819  .00000905  00000-0  41757-4 0  9994
2 42786  97.3099 151.9526 0010052 288.6130  71.4015 15.22697729154706
NUDTSAT                 
1 42787U 17036Y   20096.64050799  .00001608  00000-0  68628-4 0  9991
2 42787  97.3146 153.7599 0009982 287.4325  72.5821 15.24290286154608
SUCHAI                  
1 42788U 17036Z   20096.11282501  .00001281  00000-0  56421-4 0  9997
2 42788  97.3109 152.5367 0009716 286.0620  73.9547 15.23577540154718
SKCUBE                  
1 42789U 17036AA  20096.41432581  .00001171  00000-0  52043-4 0  9990
2 42789  97.3104 152.7046 0009593 285.0990  74.9186 15.23433165154671
VZLUSAT-1               
1 42790U 17036AB  20096.43203847  .00001528  00000-0  65384-4 0  9993
2 42790  97.3127 153.5533 0009040 282.4295  77.5931 15.24281573154722
ROBUSTA-1B              
1 42792U 17036AD  20096.18003779  .00001188  00000-0  52480-4 0  9994
2 42792  97.3105 152.7051 0009180 286.7320  73.2910 15.23618580154661
CICERO 6                
1 42793U 17036AE  20096.26827869  .00000810  00000-0  37344-4 0  9991
2 42793  97.3084 152.2893 0008529 289.6164  70.4152 15.23018300154729
D-SAT                   
1 42794U 17036AF  20096.37118023  .00000294  00000-0  31050-4 0  9993
2 42794  97.5025 132.6135 0124769 248.6553 110.1313 14.91243981151806
CORVUS BC2              
1 42846U 17042X   20096.41076174  .00000096  00000-0  14707-4 0  9993
2 42846  97.5333 343.2198 0010178 153.4127 206.7617 14.92079060148512
CORVUS BC1              
1 42847U 17042Y   20096.34434347  .00000080  00000-0  13072-4 0  9993
2 42847  97.5336 343.3126 0009831 152.5747 207.5993 14.92180010148503
MIRATA                  
1 43015U 17073C   20096.36595743  .00000900  00000-0  75768-4 0  9996
2 43015  97.7214  11.3553 0252274 287.1457  70.2275 14.79534301128415
MAKERSAT 0              
1 43016U 17073D   20096.23899434  .00000641  00000-0  55753-4 0  9991
2 43016  97.7250  11.4253 0254923 288.4305  68.9349 14.79133490128389
ASTERIA                 
1 43020U 98067NH  20096.59472634  .00281985  45635-4  47173-3 0  9991
2 43020  51.6430 247.8548 0005480 331.4135  28.6575 16.02341747136003
DELLINGR (RBLE)         
1 43021U 98067NJ  20095.84454368  .00013377  00000-0  11920-3 0  9995
2 43021  51.6361 295.5131 0002095 142.2222 217.8922 15.68814343135307
AEROCUBE 7B (OCSD B)    
1 43042U 17071F   20096.39253390  .00004033  00000-0  98999-4 0  9998
2 43042  51.6374  64.9381 0004838 131.3935 228.7467 15.43084605131096
AEROCUBE 7C (OCSD C)    
1 43043U 17071G   20096.39470582  .00004533  00000-0  11019-3 0  9995
2 43043  51.6375  64.9673 0005017 135.7162 224.4226 15.43061165131061
CHEFSAT                 
1 43044U 17071H   20096.14615496  .00009474  00000-0  19056-3 0  9992
2 43044  51.6385  53.7969 0004733 136.5398 223.5964 15.47324922131191
ASGARDIA 1              
1 43049U 17071N   20096.32599220  .00003831  00000-0  94340-4 0  9994
2 43049  51.6386  64.5728 0002549 142.8451 217.2712 15.43131409131062
ISARA                   
1 43050U 17071P   20096.47179226  .00007487  00000-0  15687-3 0  9999
2 43050  51.6366  54.3699 0002465 139.4390 220.6781 15.46475330131215
PROPCUBE 2 (FAUNA)      
1 43052U 17071R   20096.26805222  .00003886  00000-0  94295-4 0  9992
2 43052  51.6381  63.4545 0002539 138.9888 221.1289 15.43542420131067
CORVUS BC3              
1 43118U 18004H   20096.31570164  .00000706  00000-0  32798-4 0  9990
2 43118  97.4497 167.1680 0009061 315.9054  44.1460 15.23253420123867
MICROMAS-2A             
1 43131U 18004W   20096.42879169  .00001967  00000-0  81645-4 0  9999
2 43131  97.4540 168.7617 0007811 315.2595  44.8012 15.25034181123966
SPACEBEE-4              
1 43139U 18004AE  20096.32512840  .00002412  00000-0  96026-4 0  9991
2 43139  97.4571 169.6702 0007078 317.1027  42.9658 15.26213498123998
SPACEBEE-3              
1 43140U 18004AF  20096.50710284  .00003340  00000-0  12873-3 0  9993
2 43140  97.4586 170.4273 0006700 314.6490  45.4202 15.27025479124069
SPACEBEE-2              
1 43141U 18004AG  20096.50059551  .00003660  00000-0  13962-3 0  9992
2 43141  97.4598 170.6347 0006653 313.6993  46.3694 15.27301752124078
SPACEBEE-1              
1 43142U 18004AH  20096.41898778  .00003974  00000-0  14994-3 0  9999
2 43142  97.4600 170.7723 0006621 313.7315  46.3375 15.27618643124061
CICERO 7                
1 43143U 18004AJ  20096.36685782  .00001646  00000-0  68648-4 0  9993
2 43143  97.4520 168.8958 0006302 328.8551  31.2313 15.25099025123975
GOMX-4B                 
1 43196U 18015E   20096.48075911  .00000506  00000-0  23667-4 0  9999
2 43196  97.4240 225.6288 0018995   6.4461 353.7014 15.24191196120787
GOMX-4A                 
1 43197U 18015F   20096.45026122  .00000972  00000-0  42443-4 0  9997
2 43197  97.4233 225.6656 0019315   6.9242  65.7958 15.24396531120796
1KUNS-PF                
1 43466U 98067NP  20096.53473074  .00101761  00000-0  37561-3 0  9994
2 43466  51.6291 276.5711 0003638 256.7853 103.2746 15.87384098108874
UBAKUSAT                
1 43467U 98067NQ  20096.57999125  .00025231  00000-0  19429-3 0  9999
2 43467  51.6331 295.8330 0001519 143.5639 216.5463 15.71826296108634
